[
    {
        "Altitude(m)": 604969.0891470028,
        "Argument of Periapsis(deg)": 0.0,
        "Eccentricity": 0.0,
        "Inclination(deg)": 60.0,
        "Latitude(deg)": -0.0926696114556742,
        "Longitude(deg)": -10.022472214600167,
        "Mean Anomaly(deg)": 0.0,
        "RAAN(deg)": 90.0,
        "Satellite Name": "Test1 396",
        "Satellite Number": 396,
        "Semi-Major Axis(m)": 6980739.136638005,
        "Time(s)": 0
    },
    {
        "Altitude(m)": 604900.0285843095,
        "Argument of Periapsis(deg)": 0.00010418945913296404,
        "Eccentricity": 0.0,
        "Inclination(deg)": 60.0,
        "Latitude(deg)": 0.44775681258080746,
        "Longitude(deg)": -9.754350238298725,
        "Mean Anomaly(deg)": 0.6201061454618275,
        "RAAN(deg)": 89.99957995086027,
        "Satellite Name": "Test1 396",
        "Satellite Number": 396,
        "Semi-Major Axis(m)": 6980739.136638005,
        "Time(s)": 10
    },
    {
        "Altitude(m)": 604834.1960968412,
        "Argument of Periapsis(deg)": 0.0002083789182659281,
        "Eccentricity": 0.0,
        "Inclination(deg)": 60.0,
        "Latitude(deg)": 0.988180010999268,
        "Longitude(deg)": -9.486176851807263,
        "Mean Anomaly(deg)": 1.240212290923655,
        "RAAN(deg)": 89.99915990172052,
        "Satellite Name": "Test1 396",
        "Satellite Number": 396,
        "Semi-Major Axis(m)": 6980739.136638005,
        "Time(s)": 20
    },
    {
        "Altitude(m)": 604771.5980636344,
        "Argument of Periapsis(deg)": 0.00031256837739889213,
        "Eccentricity": 0.0,
        "Inclination(deg)": 60.0,
        "Latitude(deg)": 1.5285828978678444,
        "Longitude(deg)": -9.217897665845301,
        "Mean Anomaly(deg)": 1.8603184363854954,
        "RAAN(deg)": 89.99873985258078,
        "Satellite Name": "Test1 396",
        "Satellite Number": 396,
        "Semi-Major Axis(m)": 6980739.136638005,
        "Time(s)": 30
    },
    {
        "Altitude(m)": 604712.2393338246,
        "Argument of Periapsis(deg)": 0.0004167578365318562,
        "Eccentricity": 0.0,
        "Inclination(deg)": 60.0,
        "Latitude(deg)": 2.068948365794023,
        "Longitude(deg)": -8.949457722591688,
        "Mean Anomaly(deg)": 2.480424581847323,
        "RAAN(deg)": 89.99831980344103,
        "Satellite Name": "Test1 396",
        "Satellite Number": 396,
        "Semi-Major Axis(m)": 6980739.136638005,
        "Time(s)": 40
    },
    {
        "Altitude(m)": 604656.1232270962,
        "Argument of Periapsis(deg)": 0.0005209472956648203,
        "Eccentricity": 0.0,
        "Inclination(deg)": 60.0,
        "Latitude(deg)": 2.609259276011805,
        "Longitude(deg)": -8.680802472249562,
        "Mean Anomaly(deg)": 3.1005307273091502,
        "RAAN(deg)": 89.9978997543013,
        "Satellite Name": "Test1 396",
        "Satellite Number": 396,
        "Semi-Major Axis(m)": 6980739.136638005,
        "Time(s)": 50
    },
    {
        "Altitude(m)": 604603.2515348702,
        "Argument of Periapsis(deg)": 0.0006251367547977843,
        "Eccentricity": 0.0,
        "Inclination(deg)": 60.0,
        "Latitude(deg)": 3.1494984484316557,
        "Longitude(deg)": -8.41187723664915,
        "Mean Anomaly(deg)": 3.720636872770978,
        "RAAN(deg)": 89.99747970516154,
        "Satellite Name": "Test1 396",
        "Satellite Number": 396,
        "Semi-Major Axis(m)": 6980739.136638005,
        "Time(s)": 60
    },
    {
        "Altitude(m)": 604553.624522267,
        "Argument of Periapsis(deg)": 0.0007293262139307483,
        "Eccentricity": 0.0,
        "Inclination(deg)": 60.0,
        "Latitude(deg)": 3.6896486516372793,
        "Longitude(deg)": -8.142626672732403,
        "Mean Anomaly(deg)": 4.340743018232819,
        "RAAN(deg)": 89.9970596560218,
        "Satellite Name": "Test1 396",
        "Satellite Number": 396,
        "Semi-Major Axis(m)": 6980739.136638005,
        "Time(s)": 70
    },
    {
        "Altitude(m)": 604507.2409308089,
        "Argument of Periapsis(deg)": 0.0008335156730637124,
        "Eccentricity": 0.0,
        "Inclination(deg)": 60.0,
        "Latitude(deg)": 4.229692592812905,
        "Longitude(deg)": -7.8729957487638735,
        "Mean Anomaly(deg)": 4.960849163694646,
        "RAAN(deg)": 89.99663960688206,
        "Satellite Name": "Test1 396",
        "Satellite Number": 396,
        "Semi-Major Axis(m)": 6980739.136638005,
        "Time(s)": 80
    },
    {
        "Altitude(m)": 604464.0979818625,
        "Argument of Periapsis(deg)": 0.0009377051321966765,
        "Eccentricity": 0.0,
        "Inclination(deg)": 60.0,
        "Latitude(deg)": 4.769612907593043,
        "Longitude(deg)": -7.602929207492907,
        "Mean Anomaly(deg)": 5.580955309156474,
        "RAAN(deg)": 89.99621955774232,
        "Satellite Name": "Test1 396",
        "Satellite Number": 396,
        "Semi-Major Axis(m)": 6980739.136638005,
        "Time(s)": 90
    },
    {
        "Altitude(m)": 604424.1913808596,
        "Argument of Periapsis(deg)": 0.0010418945913296407,
        "Eccentricity": 0.0,
        "Inclination(deg)": 60.0,
        "Latitude(deg)": 5.309392149818061,
        "Longitude(deg)": -7.3323710291102735,
        "Mean Anomaly(deg)": 6.2010614546183005,
        "RAAN(deg)": 89.99579950860257,
        "Satellite Name": "Test1 396",
        "Satellite Number": 396,
        "Semi-Major Axis(m)": 6980739.136638005,
        "Time(s)": 100
    },
    {
        "Altitude(m)": 604387.5153222197,
        "Argument of Periapsis(deg)": 0.0011460840504626045,
        "Eccentricity": 0.0,
        "Inclination(deg)": 60.0,
        "Latitude(deg)": 5.849012781179138,
        "Longitude(deg)": -7.06126540684477,
        "Mean Anomaly(deg)": 6.821167600080129,
        "RAAN(deg)": 89.99537945946282,
        "Satellite Name": "Test1 396",
        "Satellite Number": 396,
        "Semi-Major Axis(m)": 6980739.136638005,
        "Time(s)": 110
    },
    {
        "Altitude(m)": 604354.0624950534,
        "Argument of Periapsis(deg)": 0.0012502735095955685,
        "Eccentricity": 0.0,
        "Inclination(deg)": 60.0,
        "Latitude(deg)": 6.38845716074389,
        "Longitude(deg)": -6.789556209422973,
        "Mean Anomaly(deg)": 7.441273745541969,
        "RAAN(deg)": 89.99495941032309,
        "Satellite Name": "Test1 396",
        "Satellite Number": 396,
        "Semi-Major Axis(m)": 6980739.136638005,
        "Time(s)": 120
    },
    {
        "Altitude(m)": 604323.8240895849,
        "Argument of Periapsis(deg)": 0.0013544629687285324,
        "Eccentricity": 0.0,
        "Inclination(deg)": 60.0,
        "Latitude(deg)": 6.927707534345704,
        "Longitude(deg)": -6.517186443236891,
        "Mean Anomaly(deg)": 8.061379891003797,
        "RAAN(deg)": 89.99453936118334,
        "Satellite Name": "Test1 396",
        "Satellite Number": 396,
        "Semi-Major Axis(m)": 6980739.136638005,
        "Time(s)": 130
    },
    {
        "Altitude(m)": 604296.7898043036,
        "Argument of Periapsis(deg)": 0.0014586524278614966,
        "Eccentricity": 0.0,
        "Inclination(deg)": 60.0,
        "Latitude(deg)": 7.466746023819703,
        "Longitude(deg)": -6.244099227062824,
        "Mean Anomaly(deg)": 8.681486036465625,
        "RAAN(deg)": 89.9941193120436,
        "Satellite Name": "Test1 396",
        "Satellite Number": 396,
        "Semi-Major Axis(m)": 6980739.136638005,
        "Time(s)": 140
    },
    {
        "Altitude(m)": 604272.9478538764,
        "Argument of Periapsis(deg)": 0.0015628418869944607,
        "Eccentricity": 0.0,
        "Inclination(deg)": 60.0,
        "Latitude(deg)": 8.0055546160759,
        "Longitude(deg)": -5.97023725355614,
        "Mean Anomaly(deg)": 9.301592181927452,
        "RAAN(deg)": 89.99369926290386,
        "Satellite Name": "Test1 396",
        "Satellite Number": 396,
        "Semi-Major Axis(m)": 6980739.136638005,
        "Time(s)": 150
    },
    {
        "Altitude(m)": 604252.2849777427,
        "Argument of Periapsis(deg)": 0.0016670313461274247,
        "Eccentricity": 0.0,
        "Inclination(deg)": 60.0,
        "Latitude(deg)": 8.544115151992008,
        "Longitude(deg)": -5.69554225036516,
        "Mean Anomaly(deg)": 9.921698327389292,
        "RAAN(deg)": 89.99327921376411,
        "Satellite Name": "Test1 396",
        "Satellite Number": 396,
        "Semi-Major Axis(m)": 6980739.136638005,
        "Time(s)": 160
    },
    {
        "Altitude(m)": 604234.7864494813,
        "Argument of Periapsis(deg)": 0.0017712208052603888,
        "Eccentricity": 0.0,
        "Inclination(deg)": 60.0,
        "Latitude(deg)": 9.082409315107807,
        "Longitude(deg)": -5.4199559537082775,
        "Mean Anomaly(deg)": 10.541804472851119,
        "RAAN(deg)": 89.99285916462438,
        "Satellite Name": "Test1 396",
        "Satellite Number": 396,
        "Semi-Major Axis(m)": 6980739.136638005,
        "Time(s)": 170
    },
    {
        "Altitude(m)": 604220.4360868365,
        "Argument of Periapsis(deg)": 0.001875410264393353,
        "Eccentricity": 0.0,
        "Inclination(deg)": 60.0,
        "Latitude(deg)": 9.620418620111222,
        "Longitude(deg)": -5.143419568637989,
        "Mean Anomaly(deg)": 11.161910618312948,
        "RAAN(deg)": 89.99243911548463,
        "Satellite Name": "Test1 396",
        "Satellite Number": 396,
        "Semi-Major Axis(m)": 6980739.136638005,
        "Time(s)": 180
    },
    {
        "Altitude(m)": 604209.2162624986,
        "Argument of Periapsis(deg)": 0.0019795997235263173,
        "Eccentricity": 0.0,
        "Inclination(deg)": 60.0,
        "Latitude(deg)": 10.158124401097174,
        "Longitude(deg)": -4.865873228834977,
        "Mean Anomaly(deg)": 11.782016763774774,
        "RAAN(deg)": 89.9920190663449,
        "Satellite Name": "Test1 396",
        "Satellite Number": 396,
        "Semi-Major Axis(m)": 6980739.136638005,
        "Time(s)": 190
    }
]